CUBEBEL-1 (BSUSAT-1)    
1 43666U 18083E   21255.90267454  .00002093  00000-0  10118-3 0  9995
2 43666  97.4512 283.1649 0013311 219.0312 264.5887 15.19667712159296
CICERO 10               
1 43690U 18088A   21255.85886644  .00002267  00000-0  98567-4 0  9997
2 43690  85.0383 140.0039 0016846  88.9196 271.3976 15.21540727157512
IRVINE01                
1 43693U 18088D   21255.70313227  .00006349  00000-0  24113-3 0  9996
2 43693  85.0337 136.9493 0018374  65.0271 295.2880 15.26440248157746
PROXIMA I               
1 43694U 18088E   21255.73005699  .00002233  00000-0  92063-4 0  9999
2 43694  85.0320 137.4802 0020682  62.0031 298.3301 15.23254399157665
PROXIMA II              
1 43696U 18088G   21255.85987624  .00002266  00000-0  93434-4 0  9990
2 43696  85.0321 137.4047 0020712  61.5748 298.7579 15.23250935157676
FACSAT-1                
1 43721U 18096C   21255.89177887  .00004005  00000-0  14263-3 0  9999
2 43721  97.3801 332.3712 0015573 325.9709 146.9046 15.29417442155486
CENTAURI-2              
1 43722U 18096D   21255.90424041  .00005579  00000-0  19008-3 0  9998
2 43722  97.3823 333.3701 0014924 323.7822  36.2408 15.30691458155533
INNOSAT-2               
1 43738U 18096V   21255.88369799  .00007883  00000-0  23661-3 0  9990
2 43738  97.3891 337.6830 0019121 320.9373 150.6532 15.34547391155808
SIRION PATHFINDER-2     
1 43759U 18099B   21255.90630415  .00000053  00000-0  99125-5 0  9997
2 43759  97.6574 324.5400 0015591 109.1711 251.1199 14.95594532151559
CORVUS BC4              
1 43767U 18099K   21255.95162675  .00000557  00000-0  56051-4 0  9998
2 43767  97.6545 323.4683 0013192 113.1982 247.0630 14.95015029151505
MOVE-II                 
1 43780U 18099Y   21255.83174489  .00000786  00000-0  74887-4 0  9997
2 43780  97.6605 324.7033 0014731 119.0206 241.2493 14.96085342151536
SPACEBEE-7              
1 43816U 18099BL  21255.63163496  .00000583  00000-0  56586-4 0  9992
2 43816  97.6622 325.1454 0014828 104.9584 255.3280 14.96261150151090
SPACEBEE-5              
1 43817U 18099BM  21255.89535181  .00002521  00000-0  21986-3 0  9994
2 43817  97.6726 326.9448 0014812 102.8551 257.4327 14.97666613151192
SPACEBEE-6              
1 43818U 18099BN  21255.77343237  .00000722  00000-0  68168-4 0  9996
2 43818  97.6650 325.7542 0014582 104.0721 256.2123 14.96683082151287
SHIELDS 1               
1 43850U 18104B   21255.90190100  .00001158  00000-0  48811-4 0  9990
2 43850  85.0276 236.0489 0013725 198.0282 162.0475 15.22029767152273
STF-1                   
1 43852U 18104D   21255.89839454  .00003166  00000-0  13365-3 0  9998
2 43852  85.0314 236.7049 0012503 211.9590 148.0895 15.22783529152269
ZACUBE-2                
1 43907U 18111AH  21255.98044841  .00001450  00000-0  59893-4 0  9996
2 43907  97.2197 147.1351 0020930 348.3351 137.7533 15.25386325150974
LUME 1                  
1 43908U 18111AJ  21255.78077971  .00002826  00000-0  11018-3 0  9999
2 43908  97.2208 147.6635 0019802 347.1234  12.9497 15.26581832150997
AOBA VELOX-IV           
1 43940U 19003J   21255.81823034  .00006455  00000-0  23675-3 0  9993
2 43940  97.1703 296.6232 0023549  61.2827 299.0776 15.28038201147640
UNITE                   
1 44031U 98067PX  21255.77188779  .00150984  19587-4  46553-3 0  9998
2 44031  51.6350 170.1784 0001951 134.8349 225.2816 15.91484094149511
RAAVANA-1               
1 44329U 98067QE  21255.83132327  .00304332  48137-4  71407-3 0  9990
2 44329  51.6285 189.3574 0003057 161.1068 199.0054 15.96403000128014
UGUISU                  
1 44330U 98067QF  21255.82365061  .00253033  35794-4  67429-3 0  9999
2 44330  51.6243 190.6784 0002711 159.2742 200.8376 15.94088996127974
NEPALISAT-1             
1 44331U 98067QG  21255.83802303  .00286625  43671-4  69132-3 0  9995
2 44331  51.6255 189.2815 0002980 159.3507 200.7622 15.95910635128008
SPOOQY-1                
1 44332U 98067QH  21255.82701216  .00216881  28734-4  64248-3 0  9999
2 44332  51.6275 191.5425 0002252 123.3162 236.8060 15.92123027127939
SPACEBEE-9              
1 44370U 19037F   21255.88823909  .00073157  00000-0  74680-3 0  9991
2 44370  44.9959  77.1446 0006189 297.1735  62.8530 15.64186966124842
MOVE-IIB                
1 44398U 19038N   21255.89166026  .00003617  00000-0  20124-3 0  9991
2 44398  97.5910 219.5643 0024962  11.9383 348.2437 15.14049179120992
SONATE                  
1 44400U 19038Q   21255.83383039  .00001420  00000-0  84327-4 0  9990
2 44400  97.5977 219.3040 0025575  12.3099 347.8753 15.12716180120940
LUCKY-7                 
1 44406U 19038W   21255.87950354  .00001785  00000-0  10379-3 0  9999
2 44406  97.5986 219.6414 0024496  11.8950 348.2855 15.13157556120962
BEESAT 9                
1 44412U 19038AC  21255.87782915  .00002292  00000-0  13083-3 0  9991
2 44412  97.5967 219.6927 0022600  17.4130 342.7871 15.13558805120671
JAISAT-1                
1 44419U 19038F   21255.88569459  .00002315  00000-0  13042-3 0  9996
2 44419  97.5971 220.3172 0021396  15.6747 344.5142 15.14045042121025
KRAKSAT                 
1 44427U 98067QM  21255.92338345  .00049428  00000-0  36275-3 0  9996
2 44427  51.6377 214.1431 0002474 152.0223 306.7493 15.72619591125219
VCC A                   
1 44428U 98067QN  21255.86577895  .00185571  00000-0  63941-3 0  9995
2 44428  51.6303 196.4949 0002922 136.5917 223.5318 15.88515792125442
VCC B                   
1 44431U 98067QR  21255.88304483  .00223582  29484-4  71344-3 0  9994
2 44431  51.6260 194.9548 0003469 138.3573 221.7698 15.90667899125407
DUCHIFAT-3              
1 44854U 19089C   21255.48871587  .00000795  00000-0  69742-4 0  9998
2 44854  36.9685 305.8844 0006953 120.1593 239.9841 14.99616825 96170
EYESAT-NANO             
1 44877U 19092E   21255.81657757  .00002615  00000-0  13046-3 0  9993
2 44877  97.4635  78.2426 0011573 242.7095 117.2961 15.18359610 96192
ORBITAL FACTORY 2 (OF-2)
1 45113U 19071C   21255.64747119  .00005363  00000-0  15871-3 0  9998
2 45113  51.6424 334.5338 0011096 249.5108 110.4684 15.36494118 90570
M2 PATHFINDER           
1 45727U 20037E   21255.50329179  .00000364  00000-0  41915-4 0  9995
2 45727  97.7188  71.4596 0011777 237.1578 122.8527 14.91438176 65399
NETSAT-4                
1 46504U 20068U   21255.82913157  .00000921  00000-0  74370-4 0  9993
2 46504  97.6947 191.9732 0013245 181.2008 178.9187 15.02223076 52354
NETSAT-3                
1 46505U 20068V   21255.77151602  .00001535  00000-0  12108-3 0  9999
2 46505  97.6908 191.8689 0011846 194.6011 165.4873 15.02182208 52353
NETSAT-1                
1 46506U 20068W   21255.78002691  .00001338  00000-0  10631-3 0  9994
2 46506  97.6885 191.8426 0008955 212.1076 147.9605 15.02128405 52358
NETSAT-2                
1 46507U 20068X   21255.78500593  .00000806  00000-0  65931-4 0  9992
2 46507  97.6889 191.8490 0007106 221.9963 138.0718 15.02094356 52302
SPOC                    
1 46921U 98067RR  21255.26827308  .00014785  00000-0  21312-3 0  9990
2 46921  51.6404 262.5531 0003007  49.1933 310.9319 15.56240178 48374
BOBCAT-1                
1 46922U 98067RS  21255.54857130  .00024292  00000-0  31224-3 0  9995
2 46922  51.6407 258.4540 0003090  55.3352 304.7931 15.58945595 48411
NEUTRON-1               
1 46923U 98067RT  21255.41938335  .00015319  00000-0  22156-3 0  9993
2 46923  51.6404 262.0589 0002952  59.8221 300.3063 15.56116073 48421
1998-067RU              
1 46924U 98067RU  21255.49389401  .00053137  00000-0  51669-3 0  9997
2 46924  51.6367 252.7731 0003778  73.6873 286.4538 15.65747009 48520
DESCENT                 
1 46927U 98067RX  21255.42470643  .00015899  00000-0  22956-3 0  9992
2 46927  51.6404 262.0904 0003097  73.5511 286.5821 15.56129839 48333
SAI-1 NANOCONNECT-2     
1 47701U 21015C   21255.87445042 -.00000071  00000-0  00000-0 0  9996
2 47701  97.4575 329.8083 0012083 356.1229   4.0003 15.23021319 29929
WARP-01                 
1 47924U 98067SA  21255.24623045  .00019642  00000-0  30255-3 0  9997
2 47924  51.6417 268.3775 0005879  66.3542 293.8065 15.54176436 28280
RSP-01                  
1 47925U 98067SB  21255.46092415  .00015507  00000-0  24619-3 0  9996
2 47925  51.6412 267.5709 0002796  21.2293 338.8813 15.53539339 28298
TAUSAT-1                
1 47926U 98067SC  21255.26235797  .00019204  00000-0  29272-3 0  9995
2 47926  51.6399 267.7391 0003892  14.1453 345.9646 15.54490864 28269
TSURU                   
1 47927U 98067SD  21255.28634299  .00013672  00000-0  22075-3 0  9995
2 47927  51.6413 268.6542 0002790  18.2014 341.9075 15.53186706 28267
STARS-EC                
1 47928U 98067SE  21255.44748090  .00021465  00000-0  33003-3 0  9991
2 47928  51.6408 267.4730 0006417  69.0340 291.1337 15.54160314 28270
MAYA-2                  
1 47929U 98067SF  21255.60451875  .00013414  00000-0  21646-3 0  9997
2 47929  51.6413 267.0291 0002822  16.7526 343.3557 15.53221729 28277
HIROGARI (OPUSAT-II)    
1 47930U 98067SG  21255.59971361  .00021168  00000-0  31919-3 0  9993
2 47930  51.6408 266.2503 0002976  17.6299 342.4795 15.54719989 28328
GUARANISAT-1            
1 47931U 98067SH  21255.34548837  .00013686  00000-0  22061-3 0  9999
2 47931  51.6413 268.3008 0002775  15.1343 344.9730 15.53232387 28279
SMOG-1                  
1 47964U 21022AJ  21255.67057596  .00002231  00000-0  15134-3 0  9992
2 47964  97.5482 156.3871 0020225  12.0754 348.0954 15.07293905 25010
MMSATS-1                
1 47976U 98067SJ  21255.92072277  .00005483  00000-0  10191-3 0  9999
2 47976  51.6469 267.6083 0003354  64.4549 295.6795 15.50584387 27115
BCCSAT-1                
1 48041U 21022AK  21255.73239582  .00001995  00000-0  13800-3 0  9997
2 48041  97.5491 156.3277 0016407  10.1986 349.9572 15.06730761 24997
RAMSAT                  
1 48850U 98067SL  21255.49796116  .00009952  00000-0  17640-3 0  9999
2 48850  51.6413 270.0403 0004880  94.8389 265.3157 15.50910938 14010
